[{"OBJECT_NAME":"STARLINK-35388","OBJECT_ID":"2025-262L","EPOCH":"2026-03-09T01:35:19.901184","MEAN_MOTION":15.27590459,"ECCENTRICITY":0.00037438,"INCLINATION":43.0094,"RA_OF_ASC_NODE":299.4635,"ARG_OF_PERICENTER":248.6118,"MEAN_ANOMALY":111.4335,"EPHEMERIS_TYPE":0,"CLASSIFICATION_TYPE":"U","NORAD_CAT_ID":66466,"ELEMENT_SET_NO":999,"REV_AT_EPOCH":1881,"BSTAR":0.0010991513,"MEAN_MOTION_DOT":0.00030121,"MEAN_MOTION_DDOT":0},{"OBJECT_NAME":"TRANSPORTER-1 OBJECT Z","OBJECT_ID":"2021-006Z","EPOCH":"2026-03-09T22:55:57.522432","MEAN_MOTION":15.30965056,"ECCENTRICITY":0.00100878,"INCLINATION":97.2377,"RA_OF_ASC_NODE":113.4736,"ARG_OF_PERICENTER":179.6869,"MEAN_ANOMALY":180.438,"EPHEMERIS_TYPE":0,"CLASSIFICATION_TYPE":"U","NORAD_CAT_ID":47436,"ELEMENT_SET_NO":999,"REV_AT_EPOCH":28420,"BSTAR":0.00024088983,"MEAN_MOTION_DOT":7.143e-5,"MEAN_MOTION_DDOT":0}]
